[{"OBJECT_NAME":"SITRO-AIS 26","OBJECT_ID":"2024-039S","EPOCH":"2026-03-09T23:26:14.805600","MEAN_MOTION":14.92446154,"ECCENTRICITY":0.01456696,"INCLINATION":95.3934,"RA_OF_ASC_NODE":166.8629,"ARG_OF_PERICENTER":315.8086,"MEAN_ANOMALY":43.1576,"EPHEMERIS_TYPE":0,"CLASSIFICATION_TYPE":"U","NORAD_CAT_ID":59067,"ELEMENT_SET_NO":999,"REV_AT_EPOCH":10991,"BSTAR":0.00034113831,"MEAN_MOTION_DOT":4.263e-5,"MEAN_MOTION_DDOT":0},{"OBJECT_NAME":"SL-16 DEB","OBJECT_ID":"1992-093ED","EPOCH":"2026-03-09T22:20:49.738272","MEAN_MOTION":14.83105755,"ECCENTRICITY":0.00397892,"INCLINATION":71.5066,"RA_OF_ASC_NODE":17.7297,"ARG_OF_PERICENTER":237.2775,"MEAN_ANOMALY":180.4051,"EPHEMERIS_TYPE":0,"CLASSIFICATION_TYPE":"U","NORAD_CAT_ID":22436,"ELEMENT_SET_NO":999,"REV_AT_EPOCH":75077,"BSTAR":0.0013947857,"MEAN_MOTION_DOT":0.00011488,"MEAN_MOTION_DDOT":0}]
